[{"OBJECT_NAME":"STARLINK-4699","OBJECT_ID":"2022-107S","EPOCH":"2026-03-09T22:11:48.741216","MEAN_MOTION":15.08836772,"ECCENTRICITY":0.00013465,"INCLINATION":53.216,"RA_OF_ASC_NODE":252.7435,"ARG_OF_PERICENTER":91.4444,"MEAN_ANOMALY":268.6702,"EPHEMERIS_TYPE":0,"CLASSIFICATION_TYPE":"U","NORAD_CAT_ID":53716,"ELEMENT_SET_NO":999,"REV_AT_EPOCH":19444,"BSTAR":1.174359e-6,"MEAN_MOTION_DOT":-2.69e-6,"MEAN_MOTION_DDOT":0},{"OBJECT_NAME":"DELTA 1 DEB","OBJECT_ID":"1977-065FR","EPOCH":"2026-03-09T05:35:40.773120","MEAN_MOTION":14.28278383,"ECCENTRICITY":0.04283398,"INCLINATION":29.171,"RA_OF_ASC_NODE":124.9449,"ARG_OF_PERICENTER":345.5547,"MEAN_ANOMALY":13.3121,"EPHEMERIS_TYPE":0,"CLASSIFICATION_TYPE":"U","NORAD_CAT_ID":14563,"ELEMENT_SET_NO":999,"REV_AT_EPOCH":77321,"BSTAR":0.00069118511,"MEAN_MOTION_DOT":4.927e-5,"MEAN_MOTION_DDOT":0}]
